0 COSMOS 1299 FUEL CORE
1 12808U 81081C   13281.81619339 -.00000090  00000-0 -11736-5 0  6274
2 12808 065.1184 006.8890 0031659 313.9571 135.7417 13.88571148629135
0 COSMOS 1299 FUEL CORE
1 12808U 81081C   13283.59876769  .00000024  00000-0  20052-4 0  6290
2 12808 065.1185 002.2633 0031388 312.7815 047.1071 13.88571082629384
0 COSMOS 1299 FUEL CORE
1 12808U 81081C   13283.83411120 -.00000081  00000-0  65516-5 0  6281
2 12808 065.1183 001.6464 0031800 313.4809 142.7740 13.88571105629412
0 COSMOS 1299 FUEL CORE
1 12808U 81081C   13286.19786185 -.00000065  00000-0  20106-4 0  6297
2 12808 065.1180 355.5053 0031950 312.9463 078.5086 13.88571011629741
0 COSMOS 1299 FUEL CORE
1 12808U 81081C   13288.51574622 -.00000049  00000-0  33200-4 0  6309
2 12808 065.1175 349.4833 0032093 312.3938 144.9996 13.88571017630064
0 COSMOS 1299 FUEL CORE
1 12808U 81081C   13290.75262078 -.00000084  00000-0  39003-5 0  6315
2 12808 065.1171 343.6715 0032219 311.8774 166.5252 13.88571511630375
0 COSMOS 1299 FUEL CORE
1 12808U 81081C   13292.76716558 -.00000081  00000-0  64932-5 0  6322
2 12808 065.1170 338.4373 0032363 311.4176 156.6842 13.88571424630657
0 COSMOS 1299 FUEL CORE
1 12808U 81081C   13295.20620560 -.00000095  00000-0 -46010-5 0  6335
2 12808 065.1168 332.1001 0032491 310.8554 108.7829 13.88571540630997
